[{"OBJECT_NAME":"STARLINK-5818","OBJECT_ID":"2023-028AW","EPOCH":"2026-03-09T18:21:43.357824","MEAN_MOTION":14.98325825,"ECCENTRICITY":0.00030672,"INCLINATION":70.0002,"RA_OF_ASC_NODE":204.419,"ARG_OF_PERICENTER":270.5929,"MEAN_ANOMALY":89.4879,"EPHEMERIS_TYPE":0,"CLASSIFICATION_TYPE":"U","NORAD_CAT_ID":55785,"ELEMENT_SET_NO":999,"REV_AT_EPOCH":16703,"BSTAR":1.7276102e-5,"MEAN_MOTION_DOT":1.13e-6,"MEAN_MOTION_DDOT":0},{"OBJECT_NAME":"SL-16 DEB","OBJECT_ID":"1992-093LA","EPOCH":"2026-02-20T04:21:44.148672","MEAN_MOTION":14.94798833,"ECCENTRICITY":0.00217312,"INCLINATION":71.2188,"RA_OF_ASC_NODE":0.2564,"ARG_OF_PERICENTER":24.1632,"MEAN_ANOMALY":336.0549,"EPHEMERIS_TYPE":0,"CLASSIFICATION_TYPE":"U","NORAD_CAT_ID":39848,"ELEMENT_SET_NO":999,"REV_AT_EPOCH":60757,"BSTAR":0.0046757079,"MEAN_MOTION_DOT":0.00051467,"MEAN_MOTION_DDOT":0}]
